NORAD_CAT_ID,OBJECT_NAME,OBJECT_TYPE,EPOCH,MEAN_MOTION,ECCENTRICITY,INCLINATION,RA_OF_ASC_NODE,ARG_OF_PERICENTER,MEAN_ANOMALY,BSTAR,MEAN_MOTION_DOT,MEAN_MOTION_DDOT,TLE_LINE0,TLE_LINE1,TLE_LINE2,SEMIMAJOR_AXIS,PERIOD,APOGEE,PERIGEE,DECAYED
53708.0,STARLINK-4694,PAYLOAD,2023-04-12 00:39:04,15.08843913,0.0001171,53.2162,319.9385,94.1475,265.9651,8.758e-05,1.106e-05,0.0,0 STARLINK-4694,1 53708U 22107J   23102.02713500  .00001106  00000-0  87580-4 0  9991,2 53708  53.2162 319.9385 0001171  94.1475 265.9651 15.08843913 34634,6917.868,95.437,540.544,538.923,0.0
53708.0,STARLINK-4694,PAYLOAD,2023-04-12 21:19:05,15.08838432,0.000107,53.2159,316.0734,101.0282,259.083,4.9607e-05,5.02e-06,0.0,0 STARLINK-4694,1 53708U 22107J   23102.88825833  .00000502  00000-0  49607-4 0  9995,2 53708  53.2159 316.0734 0001070 101.0282 259.0830 15.08838432 34013,6917.885,95.438,540.49,539.01,0.0
53708.0,STARLINK-4694,PAYLOAD,2023-04-13 00:29:51,15.08853281,9.33e-05,53.216,315.4778,103.4721,256.6375,0.00019698,2.85e-05,0.0,0 STARLINK-4694,1 53708U 22107J   23103.02073175  .00002850  00000-0  19698-3 0  9990,2 53708  53.2160 315.4778 0000933 103.4721 256.6375 15.08853281 34787,6917.84,95.437,540.35,539.059,0.0
53708.0,STARLINK-4694,PAYLOAD,2023-04-13 22:45:15,15.08843322,0.0001036,53.2152,311.3145,100.9061,259.2048,0.00011741,1.581e-05,0.0,0 STARLINK-4694,1 53708U 22107J   23103.94809601  .00001581  00000-0  11741-3 0  9993,2 53708  53.2152 311.3145 0001036 100.9061 259.2048 15.08843322 34922,6917.87,95.437,540.452,539.019,0.0
53708.0,STARLINK-4694,PAYLOAD,2023-04-14 16:14:15,15.09131391,0.0001105,53.2167,308.0392,108.2976,251.8136,0.0040291,0.00064943,0.0,0 STARLINK-4694,1 53708U 22107J   23104.67656352  .00064943  00000-0  40291-2 0  9999,2 53708  53.2167 308.0392 0001105 108.2976 251.8136 15.09131391 34280,6916.99,95.419,539.619,538.091,0.0
53708.0,STARLINK-4694,PAYLOAD,2023-04-14 21:00:15,15.09256208,0.0001236,53.2172,307.1471,72.6546,287.4581,0.0054429,0.00088428,0.0,0 STARLINK-4694,1 53708U 22107J   23104.87518443  .00088428  00000-0  54429-2 0  9991,2 53708  53.2172 307.1471 0001236  72.6546 287.4581 15.09256208 34314,6916.608,95.411,539.328,537.619,0.0
53708.0,STARLINK-4694,PAYLOAD,2023-04-15 03:21:40,15.09397258,0.0002117,53.2175,305.9569,54.954,305.1651,0.0078792,0.00129383,0.0,0 STARLINK-4694,1 53708U 22107J   23105.14005273  .00129383  00000-0  78792-2 0  9999,2 53708  53.2175 305.9569 0002117  54.9540 305.1651 15.09397258 34358,6916.178,95.402,539.507,536.578,0.0
53708.0,STARLINK-4694,PAYLOAD,2023-04-15 12:53:34,15.09680718,0.0001237,53.2167,304.172,80.5251,279.5881,0.010123,0.00168541,0.0,0 STARLINK-4694,1 53708U 22107J   23105.53720856  .00168541  00000-0  10123-1 0  9995,2 53708  53.2167 304.1720 0001237  80.5251 279.5881 15.09680718 34417,6915.312,95.384,538.032,536.321,0.0
53708.0,STARLINK-4694,PAYLOAD,2023-04-15 22:00:01,15.10460594,0.0001405,53.2149,302.4676,81.5786,183.0431,0.0010753,0.00017645,0.0,0 STARLINK-4694,1 53708U 22107J   23105.91668981  .00017645  00000-0  10753-2 0  9995,2 53708  53.2149 302.4676 0001405  81.5786 183.0431 15.10460594  1301,6912.931,95.335,535.768,533.825,0.0
53708.0,STARLINK-4694,PAYLOAD,2023-04-16 10:00:00,15.10435227,0.0001213,53.2145,300.2152,99.5068,5.385,0.0042155,0.00070503,0.0,0 STARLINK-4694,1 53708U 22107J   23106.41667824  .00070503  00000-0  42155-2 0  9999,2 53708  53.2145 300.2152 0001213  99.5068   5.3850 15.10435227 34549,6913.009,95.337,535.712,534.035,0.0
53708.0,STARLINK-4694,PAYLOAD,2023-04-16 22:00:00,15.10453136,0.0001268,53.2148,297.9669,87.8854,217.3257,0.0018492,0.00030605,0.0,0 STARLINK-4694,1 53708U 22107J   23106.91667824  .00030605  00000-0  18492-2 0  9990,2 53708  53.2148 297.9669 0001268  87.8854 217.3257 15.10453136 34624,6912.954,95.336,535.696,533.943,0.0
53708.0,STARLINK-4694,PAYLOAD,2023-04-17 14:00:01,15.10491931,0.000102,53.2149,294.9646,88.8527,243.4431,0.00011464,1.617e-05,0.0,0 STARLINK-4694,1 53708U 22107J   23107.58334491  .00001617  00000-0  11464-3 0  9999,2 53708  53.2149 294.9646 0001020  88.8527 243.4431 15.10491931 34721,6912.836,95.333,535.406,533.996,0.0
53708.0,STARLINK-4694,PAYLOAD,2023-04-17 22:00:00,15.1046526,0.0001133,53.2149,293.4659,66.1653,279.7355,-0.00071484,-0.00012169,0.0,0 STARLINK-4694,1 53708U 22107J   23107.91667824 -.00012169  00000-0 -71484-3 0  9999,2 53708  53.2149 293.4659 0001133  66.1653 279.7355 15.10465260  1304,6912.917,95.335,535.565,533.999,0.0
53708.0,STARLINK-4694,PAYLOAD,2023-04-18 12:00:00,15.10463538,0.0001061,53.2151,290.8382,71.9923,207.6087,0.0029394,0.00048962,0.0,0 STARLINK-4694,1 53708U 22107J   23108.50001157  .00048962  00000-0  29394-2 0  9996,2 53708  53.2151 290.8382 0001061  71.9923 207.6087 15.10463538 34860,6912.922,95.335,535.521,534.054,0.0
53708.0,STARLINK-4694,PAYLOAD,2023-04-18 14:00:01,15.10490194,0.0001064,53.2152,290.4637,70.0075,302.9762,0.00027825,4.344e-05,0.0,0 STARLINK-4694,1 53708U 22107J   23108.58334491  .00004344  00000-0  27825-3 0  9998,2 53708  53.2152 290.4637 0001064  70.0075 302.9762 15.10490194  1301,6912.841,95.333,535.442,533.97,0.0
53708.0,STARLINK-4694,PAYLOAD,2023-04-18 22:00:00,15.10465507,0.0001154,53.2153,288.9649,60.566,325.9952,0.00050694,8.154e-05,0.0,0 STARLINK-4694,1 53708U 22107J   23108.91667824  .00008154  00000-0  50694-3 0  9997,2 53708  53.2153 288.9649 0001154  60.5660 325.9952 15.10465507 34921,6912.916,95.335,535.579,533.984,0.0
53708.0,STARLINK-4694,PAYLOAD,2023-04-19 10:35:16,15.10480327,0.0001106,53.2155,286.6042,64.2284,295.8823,0.00020426,3.11e-05,0.0,0 STARLINK-4694,1 53708U 22107J   23109.44116366  .00003110  00000-0  20426-3 0  9993,2 53708  53.2155 286.6042 0001106  64.2284 295.8823 15.10480327 35756,6912.871,95.334,535.501,533.972,0.0
53708.0,STARLINK-4694,PAYLOAD,2023-04-19 18:31:40,15.10488749,0.0001164,53.2159,285.1143,72.1393,287.9727,0.00028815,4.509e-05,0.0,0 STARLINK-4694,1 53708U 22107J   23109.77199972  .00004509  00000-0  28815-3 0  9996,2 53708  53.2159 285.1143 0001164  72.1393 287.9727 15.10488749 35806,6912.845,95.333,535.515,533.906,0.0
53708.0,STARLINK-4694,PAYLOAD,2023-04-20 04:03:22,15.10482161,0.0001068,53.2155,283.328,71.462,288.6489,0.00013965,2.033e-05,0.0,0 STARLINK-4694,1 53708U 22107J   23110.16900947  .00002033  00000-0  13965-3 0  9993,2 53708  53.2155 283.3280 0001068  71.4620 288.6489 15.10482161 35111,6912.866,95.334,535.469,533.992,0.0
53708.0,STARLINK-4694,PAYLOAD,2023-04-20 18:20:54,15.10474559,0.0001092,53.2158,280.6469,65.7094,294.4013,-4.6889e-05,-1.073e-05,0.0,0 STARLINK-4694,1 53708U 22107J   23110.76452491 -.00001073  00000-0 -46889-4 0  9992,2 53708  53.2158 280.6469 0001092  65.7094 294.4013 15.10474559 35201,6912.889,95.334,535.509,533.999,0.0
53708.0,STARLINK-4694,PAYLOAD,2023-04-21 03:52:36,15.10476573,9.9e-05,53.2159,278.8627,82.1334,277.9771,1.7681e-05,2e-08,0.0,0 STARLINK-4694,1 53708U 22107J   23111.16153382  .00000002  00000-0  17681-4 0  9991,2 53708  53.2159 278.8627 0000990  82.1334 277.9771 15.10476573 36018,6912.883,95.334,535.432,534.063,0.0
53708.0,STARLINK-4694,PAYLOAD,2023-04-21 18:10:08,15.10476358,9.71e-05,53.2159,276.1827,82.1722,277.9381,-1.1576e-05,-4.85e-06,0.0,0 STARLINK-4694,1 53708U 22107J   23111.75704745 -.00000485  00000-0 -11576-4 0  9995,2 53708  53.2159 276.1827 0000971  82.1722 277.9381 15.10476358 36109,6912.883,95.334,535.419,534.077,0.0
53708.0,STARLINK-4694,PAYLOAD,2023-04-22 03:41:50,15.10483283,0.0001013,53.216,274.3956,89.7944,270.3165,5.1468e-05,5.65e-06,0.0,0 STARLINK-4694,1 53708U 22107J   23112.15405235  .00000565  00000-0  51468-4 0  9993,2 53708  53.2160 274.3956 0001013  89.7944 270.3165 15.10483283 36169,6912.862,95.334,535.427,534.027,0.0
53708.0,STARLINK-4694,PAYLOAD,2023-04-22 22:45:13,15.10483159,0.0001599,53.2137,270.8203,77.2082,282.9089,0.00013694,1.988e-05,0.0,0 STARLINK-4694,1 53708U 22107J   23112.94807179  .00001988  00000-0  13694-3 0  9991,2 53708  53.2137 270.8203 0001599  77.2082 282.9089 15.10483159 36282,6912.862,95.334,535.833,533.622,0.0
53708.0,STARLINK-4694,PAYLOAD,2023-04-24 09:41:25,15.10488083,4.28e-05,53.2178,264.2666,70.5026,289.6013,0.00024595,3.806e-05,0.0,0 STARLINK-4694,1 53708U 22107J   23114.40377060  .00003806  00000-0  24595-3 0  9998,2 53708  53.2178 264.2666 0000428  70.5026 289.6013 15.10488083 36508,6912.847,95.333,535.008,534.417,0.0
53708.0,STARLINK-4694,PAYLOAD,2023-04-24 17:37:49,15.10516175,0.0001306,53.2145,262.7825,65.7763,294.3366,0.0005271,8.503e-05,0.0,0 STARLINK-4694,1 53708U 22107J   23114.73459544  .00008503  00000-0  52710-3 0  9991,2 53708  53.2145 262.7825 0001306  65.7763 294.3366 15.10516175 35802,6912.762,95.332,535.53,533.724,0.0
53708.0,STARLINK-4694,PAYLOAD,2023-04-25 09:30:40,15.10463067,8.43e-05,53.2158,259.8026,96.0189,264.09,-0.00019417,-3.522e-05,0.0,0 STARLINK-4694,1 53708U 22107J   23115.39629822 -.00003522  00000-0 -19417-3 0  9997,2 53708  53.2158 259.8026 0000843  96.0189 264.0900 15.10463067 35900,6912.924,95.335,535.372,534.206,0.0
53708.0,STARLINK-4694,PAYLOAD,2023-04-26 12:30:29,15.10466607,0.0001454,53.2139,254.7412,106.5762,253.5391,-0.00022603,-4.052e-05,0.0,0 STARLINK-4694,1 53708U 22107J   23116.52117014 -.00004052  00000-0 -22603-3 0  9998,2 53708  53.2139 254.7412 0001454 106.5762 253.5391 15.10466607 36827,6912.913,95.335,535.783,533.773,0.0
53708.0,STARLINK-4694,PAYLOAD,2023-04-27 12:19:43,15.10479599,9.36e-05,53.2143,250.2723,114.3301,245.779,0.00058491,9.459e-05,0.0,0 STARLINK-4694,1 53708U 22107J   23117.51369440  .00009459  00000-0  58491-3 0  9998,2 53708  53.2143 250.2723 0000936 114.3301 245.7790 15.10479599 36974,6912.873,95.334,535.385,534.091,0.0
53708.0,STARLINK-4694,PAYLOAD,2023-04-27 18:40:50,15.10493852,6.54e-05,53.2168,249.0771,125.623,234.4824,0.00063627,0.00010321,0.0,0 STARLINK-4694,1 53708U 22107J   23117.77835951  .00010321  00000-0  63627-3 0  9998,2 53708  53.2168 249.0771 0000654 125.6230 234.4824 15.10493852 36266,6912.83,95.333,535.147,534.243,0.0
